*******************************************************************************
Ephemeris / WWW_USER Mon Mar 24 07:34:05 2025 Pasadena, USA      / Horizons    
*******************************************************************************
Target body name: (2018 RG5)                      {source: JPL#6}
Center body name: Earth (399)                     {source: DE441}
Center-site name: Mauna Kea
*******************************************************************************
Start time      : A.D. 2018-Dec-20 03:57:00.0000 UT      
Stop  time      : A.D. 2018-Dec-20 16:41:00.0000 UT      
Step-size       : 1 minutes
*******************************************************************************
Target pole/equ : undefined
Target radii    : undefined                                                    
Center geodetic : 204.5278, 19.8260847, 4.21024   {E-lon(deg),Lat(deg),Alt(km)}
Center cylindric: 204.5278, 6006.35451, 2151.0229 {E-lon(deg),Dxy(km),Dz(km)}
Center pole/equ : ITRF93                          {East-longitude positive}
Center radii    : 6378.137, 6378.137, 6356.752 km {Equator_a, b, pole_c}       
Target primary  : Sun
Vis. interferer : MOON (R_eq= 1737.400) km        {source: DE441}
Rel. light bend : Sun                             {source: DE441}
Rel. lght bnd GM: 1.3271E+11 km^3/s^2                                          
Small-body perts: Yes                             {source: SB441-N16}
Atmos refraction: NO (AIRLESS)
RA format       : HMS
Time format     : CAL 
Calendar mode   : Mixed Julian/Gregorian
RTS-only print  : NO       
EOP file        : eop.250321.p250617                                           
EOP coverage    : DATA-BASED 1962-JAN-20 TO 2025-MAR-21. PREDICTS-> 2025-JUN-16
Units conversion: 1 au= 149597870.700 km, c= 299792.458 km/s, 1 day= 86400.0 s 
Table cut-offs 1: Elevation (-90.0deg=NO ),Airmass (>38.000=NO), Daylight (YES)
Table cut-offs 2: Solar elongation (  0.0,180.0=NO ),Local Hour Angle( 0.0=NO )
Table cut-offs 3: RA/DEC angular rate (     0.0=NO )                           
*******************************************************************************
Initial IAU76/J2000 heliocentric ecliptic osculating elements (au, days, deg.):
  EPOCH=  2458374.5 ! 2018-Sep-13.00 (TDB)         Residual RMS= .44286        
   EC= .3970272763955992   QR= .9476094655819058   TP= 2458410.7007282218      
   OM= 172.9777515025259   W=  220.286388004559    IN= 6.065188755768435       
  Equivalent ICRF heliocentric cartesian coordinates (au, au/d):
   X= 1.011373795361920E+00  Y=-1.657289676662098E-01  Z=-6.569093016663846E-02
  VX=-6.707749535245534E-04 VY= 1.878070382659777E-02 VZ= 5.901532854039199E-03
Asteroid physical parameters (km, seconds, rotational period in hours):        
   GM= n.a.                RAD= n.a.               ROTPER= n.a.                
   H= 26.76                G= .150                 B-V= n.a.                   
                           ALBEDO= n.a.            STYP= n.a.                  
*******************************************************************************
 Date__(UT)__HR:MN     R.A._________(ICRF)_________DEC
******************************************************
$$SOE
 2018-Dec-20 10:06  m  09 48 43.138146 -09 06 06.12580
 2018-Dec-20 10:07  m  09 48 43.110024 -09 06 05.80578
 2018-Dec-20 10:08  m  09 48 43.081870 -09 06 05.48570
 2018-Dec-20 10:09  m  09 48 43.053685 -09 06 05.16558
 2018-Dec-20 10:10  m  09 48 43.025469 -09 06 04.84540
 2018-Dec-20 10:11  m  09 48 42.997222 -09 06 04.52517
 2018-Dec-20 10:12  m  09 48 42.968944 -09 06 04.20489
 2018-Dec-20 10:13  m  09 48 42.940635 -09 06 03.88455
 2018-Dec-20 10:14  m  09 48 42.912295 -09 06 03.56416
 2018-Dec-20 10:15  m  09 48 42.883924 -09 06 03.24371
 2018-Dec-20 10:16  m  09 48 42.855523 -09 06 02.92321
 2018-Dec-20 10:17  m  09 48 42.827091 -09 06 02.60266
 2018-Dec-20 10:18  m  09 48 42.798628 -09 06 02.28205
 2018-Dec-20 10:19  m  09 48 42.770135 -09 06 01.96139
 2018-Dec-20 10:20  m  09 48 42.741611 -09 06 01.64067
 2018-Dec-20 10:21  m  09 48 42.713057 -09 06 01.31989
 2018-Dec-20 10:22  m  09 48 42.684473 -09 06 00.99906
 2018-Dec-20 10:23  m  09 48 42.655858 -09 06 00.67817
 2018-Dec-20 10:24  m  09 48 42.627214 -09 06 00.35722
 2018-Dec-20 10:25  m  09 48 42.598539 -09 06 00.03622
 2018-Dec-20 10:26  m  09 48 42.569834 -09 05 59.71516
 2018-Dec-20 10:27  m  09 48 42.541100 -09 05 59.39404
 2018-Dec-20 10:28  m  09 48 42.512335 -09 05 59.07286
 2018-Dec-20 10:29  m  09 48 42.483541 -09 05 58.75163
 2018-Dec-20 10:30  m  09 48 42.454717 -09 05 58.43034
 2018-Dec-20 10:31  m  09 48 42.425864 -09 05 58.10899
 2018-Dec-20 10:32  m  09 48 42.396981 -09 05 57.78757
 2018-Dec-20 10:33  m  09 48 42.368069 -09 05 57.46610
 2018-Dec-20 10:34  m  09 48 42.339127 -09 05 57.14457
 2018-Dec-20 10:35  m  09 48 42.310156 -09 05 56.82298
 2018-Dec-20 10:36  m  09 48 42.281156 -09 05 56.50133
 2018-Dec-20 10:37  m  09 48 42.252127 -09 05 56.17962
 2018-Dec-20 10:38  m  09 48 42.223069 -09 05 55.85785
 2018-Dec-20 10:39  m  09 48 42.193982 -09 05 55.53602
 2018-Dec-20 10:40  m  09 48 42.164866 -09 05 55.21412
 2018-Dec-20 10:41  m  09 48 42.135721 -09 05 54.89217
 2018-Dec-20 10:42  m  09 48 42.106548 -09 05 54.57015
 2018-Dec-20 10:43  m  09 48 42.077346 -09 05 54.24807
 2018-Dec-20 10:44  m  09 48 42.048116 -09 05 53.92593
 2018-Dec-20 10:45  m  09 48 42.018857 -09 05 53.60372
 2018-Dec-20 10:46  m  09 48 41.989570 -09 05 53.28145
 2018-Dec-20 10:47  m  09 48 41.960255 -09 05 52.95912
 2018-Dec-20 10:48  m  09 48 41.930911 -09 05 52.63672
 2018-Dec-20 10:49  m  09 48 41.901540 -09 05 52.31426
 2018-Dec-20 10:50  m  09 48 41.872141 -09 05 51.99174
 2018-Dec-20 10:51  m  09 48 41.842713 -09 05 51.66915
 2018-Dec-20 10:52  m  09 48 41.813258 -09 05 51.34650
 2018-Dec-20 10:53  m  09 48 41.783776 -09 05 51.02378
 2018-Dec-20 10:54  m  09 48 41.754266 -09 05 50.70100
 2018-Dec-20 10:55  m  09 48 41.724728 -09 05 50.37815
 2018-Dec-20 10:56  m  09 48 41.695163 -09 05 50.05524
 2018-Dec-20 10:57  m  09 48 41.665570 -09 05 49.73225
 2018-Dec-20 10:58  m  09 48 41.635951 -09 05 49.40921
 2018-Dec-20 10:59  m  09 48 41.606304 -09 05 49.08609
 2018-Dec-20 11:00  m  09 48 41.576631 -09 05 48.76291
 2018-Dec-20 11:01  m  09 48 41.546930 -09 05 48.43967
 2018-Dec-20 11:02  m  09 48 41.517203 -09 05 48.11635
 2018-Dec-20 11:03  m  09 48 41.487448 -09 05 47.79297
 2018-Dec-20 11:04  m  09 48 41.457668 -09 05 47.46952
 2018-Dec-20 11:05  m  09 48 41.427860 -09 05 47.14600
 2018-Dec-20 11:06  m  09 48 41.398027 -09 05 46.82241
 2018-Dec-20 11:07  m  09 48 41.368167 -09 05 46.49876
 2018-Dec-20 11:08  m  09 48 41.338280 -09 05 46.17503
 2018-Dec-20 11:09  m  09 48 41.308368 -09 05 45.85124
 2018-Dec-20 11:10  m  09 48 41.278430 -09 05 45.52738
 2018-Dec-20 11:11  m  09 48 41.248465 -09 05 45.20344
 2018-Dec-20 11:12  m  09 48 41.218475 -09 05 44.87944
 2018-Dec-20 11:13  m  09 48 41.188459 -09 05 44.55537
 2018-Dec-20 11:14  m  09 48 41.158418 -09 05 44.23123
 2018-Dec-20 11:15  m  09 48 41.128351 -09 05 43.90701
 2018-Dec-20 11:16  m  09 48 41.098258 -09 05 43.58273
 2018-Dec-20 11:17  m  09 48 41.068140 -09 05 43.25837
 2018-Dec-20 11:18  m  09 48 41.037998 -09 05 42.93395
 2018-Dec-20 11:19  m  09 48 41.007829 -09 05 42.60945
 2018-Dec-20 11:20  m  09 48 40.977636 -09 05 42.28488
 2018-Dec-20 11:21  m  09 48 40.947418 -09 05 41.96023
 2018-Dec-20 11:22  m  09 48 40.917176 -09 05 41.63552
 2018-Dec-20 11:23  m  09 48 40.886908 -09 05 41.31073
 2018-Dec-20 11:24  m  09 48 40.856616 -09 05 40.98587
 2018-Dec-20 11:25  m  09 48 40.826300 -09 05 40.66094
 2018-Dec-20 11:26  m  09 48 40.795959 -09 05 40.33593
 2018-Dec-20 11:27  m  09 48 40.765594 -09 05 40.01085
 2018-Dec-20 11:28  m  09 48 40.735205 -09 05 39.68570
 2018-Dec-20 11:29  m  09 48 40.704791 -09 05 39.36047
 2018-Dec-20 11:30  m  09 48 40.674354 -09 05 39.03516
 2018-Dec-20 11:31  m  09 48 40.643893 -09 05 38.70979
 2018-Dec-20 11:32  m  09 48 40.613408 -09 05 38.38434
 2018-Dec-20 11:33  m  09 48 40.582900 -09 05 38.05881
 2018-Dec-20 11:34  m  09 48 40.552368 -09 05 37.73321
 2018-Dec-20 11:35  m  09 48 40.521813 -09 05 37.40753
 2018-Dec-20 11:36  m  09 48 40.491235 -09 05 37.08178
 2018-Dec-20 11:37  m  09 48 40.460633 -09 05 36.75595
 2018-Dec-20 11:38  m  09 48 40.430009 -09 05 36.43005
 2018-Dec-20 11:39  m  09 48 40.399361 -09 05 36.10407
 2018-Dec-20 11:40  m  09 48 40.368691 -09 05 35.77801
 2018-Dec-20 11:41  m  09 48 40.337998 -09 05 35.45188
 2018-Dec-20 11:42  m  09 48 40.307282 -09 05 35.12567
 2018-Dec-20 11:43  m  09 48 40.276544 -09 05 34.79938
 2018-Dec-20 11:44  m  09 48 40.245784 -09 05 34.47301
 2018-Dec-20 11:45  m  09 48 40.215001 -09 05 34.14657
 2018-Dec-20 11:46  m  09 48 40.184196 -09 05 33.82005
 2018-Dec-20 11:47  m  09 48 40.153370 -09 05 33.49345
 2018-Dec-20 11:48  m  09 48 40.122521 -09 05 33.16678
 2018-Dec-20 11:49  m  09 48 40.091650 -09 05 32.84002
 2018-Dec-20 11:50  m  09 48 40.060758 -09 05 32.51319
 2018-Dec-20 11:51  m  09 48 40.029845 -09 05 32.18628
 2018-Dec-20 11:52  m  09 48 39.998910 -09 05 31.85928
 2018-Dec-20 11:53  m  09 48 39.967953 -09 05 31.53221
 2018-Dec-20 11:54  m  09 48 39.936976 -09 05 31.20507
 2018-Dec-20 11:55  m  09 48 39.905977 -09 05 30.87784
 2018-Dec-20 11:56  m  09 48 39.874958 -09 05 30.55053
 2018-Dec-20 11:57  m  09 48 39.843917 -09 05 30.22314
 2018-Dec-20 11:58  m  09 48 39.812856 -09 05 29.89567
 2018-Dec-20 11:59  m  09 48 39.781775 -09 05 29.56812
 2018-Dec-20 12:00  m  09 48 39.750673 -09 05 29.24049
 2018-Dec-20 12:01  m  09 48 39.719550 -09 05 28.91278
 2018-Dec-20 12:02  m  09 48 39.688408 -09 05 28.58499
 2018-Dec-20 12:03  m  09 48 39.657245 -09 05 28.25711
 2018-Dec-20 12:04  m  09 48 39.626062 -09 05 27.92916
 2018-Dec-20 12:05  m  09 48 39.594860 -09 05 27.60112
 2018-Dec-20 12:06  m  09 48 39.563637 -09 05 27.27301
 2018-Dec-20 12:07  m  09 48 39.532395 -09 05 26.94481
 2018-Dec-20 12:08  m  09 48 39.501134 -09 05 26.61653
